AEHF-4 (USA 288)        
1 43651U 18079A   26168.13485897 -.00000279  00000+0  00000+0 0  9999
2 43651   1.4321   3.9997 0060396 356.0538 246.3706  1.00272496 28293
BEIDOU-3 G1             
1 43683U 18085A   26168.16897889 -.00000114  00000+0  00000+0 0  9990
2 43683   2.8677  97.3692 0008046 349.5379  39.3073  1.00270347 28065
GSAT-29                 
1 43698U 18089A   26167.41049563  .00000083  00000+0  00000+0 0  9999
2 43698   0.0647  98.6697 0003279 339.3355  29.5152  1.00273818 27784
ES'HAIL 2               
1 43700U 18090A   26167.76128993  .00000141  00000+0  00000+0 0  9993
2 43700   0.0175  13.0563 0001609 111.1044  80.7103  1.00270422 27674
GEO-KOMPSAT-2A          
1 43823U 18100A   26167.63900156 -.00000346  00000+0  00000+0 0  9994
2 43823   0.0523 115.8368 0001803 330.9204 176.4552  1.00270764 27621
GSAT-11                 
1 43824U 18100B   26167.94998816 -.00000080  00000+0  00000+0 0  9994
2 43824   0.0333 247.5083 0007662 200.3541 233.3433  1.00271096 27474
GSAT-7A                 
1 43864U 18105A   26167.94004722  .00000024  00000+0  00000+0 0  9994
2 43864   0.0123  60.7344 0001942   1.7233 243.9156  1.00270838 27445
COSMOS 2533             
1 43867U 18107A   26167.94667466 -.00000042  00000+0  00000+0 0  9990
2 43867   0.0462  90.8842 0000987  33.8801 191.2318  1.00271834 27448
TJS-3                   
1 43874U 18110A   26167.76912181 -.00000220  00000+0  00000+0 0  9997
2 43874   2.5442  80.4963 0002137  83.1159 166.5595  1.00270545 27410
ZHONGXING-2D            
1 43920U 19001A   26167.78186131 -.00000339  00000+0  00000+0 0  9990
2 43920   0.0343 246.2410 0001449  89.4224 340.8709  1.00271540 54073
HELLAS-SAT 4 & SGS-1    
1 44034U 19007A   26167.54997946  .00000151  00000+0  00000+0 0  9992
2 44034   0.0770 128.0342 0004792  11.7763   2.0381  1.00269456 27363
GSAT-31                 
1 44035U 19007B   26167.76562329  .00000123  00000+0  00000+0 0  9999
2 44035   0.0662 258.9943 0001718 103.7626 225.7380  1.00274116 26966
NUSANTARA SATU          
1 44048U 19009A   26166.28796134 -.00000231  00000+0  00000+0 0  9995
2 44048   0.0501 149.2515 0004190 326.8182  37.1818  1.00270641 26758
ZHONGXING-6C            
1 44067U 19012A   26167.78194797 -.00000339  00000+0  00000+0 0  9992
2 44067   0.0751  72.3898 0013113 335.7082 268.8241  1.00260150 26734
WGS 10 (USA 291)        
1 44071U 19014A   26167.95428535  .00000043  00000+0  00000+0 0  9999
2 44071   0.0160  10.6438 0000449 314.1182 344.3108  1.00272069 26619
TIANLIAN 2-01           
1 44076U 19017A   26167.41491564 -.00000108  00000+0  00000+0 0  9993
2 44076   0.5384  83.1151 0000668  33.1378  14.8104  1.00270522 26642
ARABSAT-6A              
1 44186U 19021A   26167.76215661  .00000150  00000+0  00000+0 0  9996
2 44186   0.0505   5.5983 0001035 332.7934 231.4495  1.00261957 26158
BEIDOU-3 IGSO-1         
1 44204U 19023A   26167.59097509 -.00000221  00000+0  00000+0 0  9999
2 44204  58.6939  37.6556 0025458 225.7166 332.2073  1.00291370  7203
BEIDOU-2 G8             
1 44231U 19027A   26167.78480800 -.00000251  00000+0  00000+0 0  9997
2 44231   1.6567  74.4880 0010216 281.8072 335.8279  1.00270894 26073
YAMAL 601               
1 44307U 19031A   26167.76579663  .00000117  00000+0  00000+0 0  9990
2 44307   0.0191  62.0752 0002342  26.8709 140.7701  1.00270910 25924
AT&T T-16               
1 44333U 19034A   26167.66486257 -.00000117  00000+0  00000+0 0  9998
2 44333   0.0218  61.0762 0000804 214.9067 127.4309  1.00268512 25629
EUTELSAT 7C             
1 44334U 19034B   26166.26040124  .00000052  00000+0  00000+0 0  9990
2 44334   0.0734 175.5544 0003062 250.1525 298.5954  1.00272253  6815
BEIDOU-3 IGSO-2         
1 44337U 19035A   26165.62361995 -.00000071  00000+0  00000+0 0  9997
2 44337  55.2456 158.8849 0039904 216.4592 231.8306  1.00267330 25649
COSMOS 2539             
1 44457U 19048A   26167.75851309  .00000076  00000+0  00000+0 0  9997
2 44457   0.0358  87.2209 0001293  32.8439  69.9989  1.00256335 25220
EDRS-C                  
1 44475U 19049A   26167.71304350 -.00000265  00000+0  00000+0 0  9994
2 44475   0.0209  85.9333 0000101  38.0010 180.2394  1.00269471 25208
INTELSAT 39 (IS-39)     
1 44476U 19049B   26167.93893807  .00000031  00000+0  00000+0 0  9999
2 44476   0.0008 356.4174 0000945 318.0874 350.6593  1.00269114 25129
AMOS-17                 
1 44479U 19050A   26167.91940256  .00000106  00000+0  00000+0 0  9996
2 44479   0.0148 340.4324 0001616 139.0917 133.6349  1.00272916 25180
AEHF-5 (USA 292)        
1 44481U 19051A   26167.98855617 -.00000261  00000+0  00000+0 0  9996
2 44481   1.4545 336.2154 0066343   0.0097  17.9617  1.00273718 25269
EUTELSAT 5 WEST B       
1 44624U 19067A   26166.68578492 -.00000040  00000+0  00000+0 0  9996
2 44624   0.0632   3.7418 0002873  78.7733  63.3583  1.00272136 24423
TJS-4                   
1 44637U 19070A   26167.63007487 -.00000170  00000+0  00000+0 0  9995
2 44637   0.0156  30.5389 0004446  10.1649 174.4757  1.00268284 24535
TIBA-1                  
1 44800U 19080A   26167.92325308  .00000153  00000+0  00000+0 0  9995
2 44800   0.0531  11.4815 0001816  85.4779 176.0733  1.00270598 24053
INMARSAT GX5            
1 44801U 19080B   26167.91497132  .00000072  00000+0  00000+0 0  9990
2 44801   0.0344 353.9608 0002266 108.1800 143.4605  1.00272863  6781
